{"type": "FeatureCollection", "features": [ {"type": "Feature", "properties": {"norad_id": 30146, "name": "FENGYUN 1C DEB", "group": "fengyun-1c-debris", "lat": -80.92359187815201, "lon": -159.2404395172433, "alt_km": 1025.322752686201, "timestamp": "2025-12-03T22:42:32.909659+00:00", "meta": {"OBJECT_NAME": "FENGYUN 1C DEB", "OBJECT_ID": "1999-025TB", "EPOCH": "2025-12-03T01:13:30.770112", "MEAN_MOTION": 13.86572233, "ECCENTRICITY": 0.01787368, "INCLINATION": 98.02, "RA_OF_ASC_NODE": 138.0437, "ARG_OF_PERICENTER": 149.7086, "MEAN_ANOMALY": 337.0393, "EPHEMERIS_TYPE": 0, "CLASSIFICATION_TYPE": "U", "NORAD_CAT_ID": 30146, "ELEMENT_SET_NO": 999, "REV_AT_EPOCH": 95283, "BSTAR": 0.00091047317, "MEAN_MOTION_DOT": 1.166e-05, "MEAN_MOTION_DDOT": 0}, "tle": {"line1": "1 30146U 99025TB  25337.05105058  .00001166  00000+0  91047-3 0  9990", "line2": "2 30146  98.0200 138.0437 0178736 149.7086 337.0393 13.86572233952833"}}, "geometry": {"type": "Point", "coordinates": [-159.2404395172433, -80.92359187815201]}}, {"type": "Feature", "properties": {"norad_id": 30148, "name": "FENGYUN 1C DEB", "group": "fengyun-1c-debris", "lat": -56.51477765899408, "lon": -67.69039278696201, "alt_km": 847.0001639597031, "timestamp": "2025-12-03T22:42:32.909668+00:00", "meta": {"OBJECT_NAME": "FENGYUN 1C DEB", "OBJECT_ID": "1999-025TD", "EPOCH": "2025-12-02T23:40:52.710816", "MEAN_MOTION": 13.88451209, "ECCENTRICITY": 0.01347826, "INCLINATION": 99.5453, "RA_OF_ASC_NODE": 126.0634, "ARG_OF_PERICENTER": 222.5829, "MEAN_ANOMALY": 261.2361, "EPHEMERIS_TYPE": 0, "CLASSIFICATION_TYPE": "U", "NORAD_CAT_ID": 30148, "ELEMENT_SET_NO": 999, "REV_AT_EPOCH": 95381, "BSTAR": 0.0011371118, "MEAN_MOTION_DOT": 1.42e-05, "MEAN_MOTION_DDOT": 0}, "tle": {"line1": "1 30148U 99025TD  25336.98672119  .00001420  00000+0  11371-2 0  9994", "line2": "2 30148  99.5453 126.0634 0134782 222.5829 261.2361 13.88451209953818"}}, "geometry": {"type": "Point", "coordinates": [-67.69039278696201, -56.51477765899408]}}, {"type": "Feature", "properties": {"norad_id": 30150, "name": "FENGYUN 1C DEB", "group": "fengyun-1c-debris", "lat": 73.22784760865424, "lon": 82.57145093948238, "alt_km": 905.7312684332983, "timestamp": "2025-12-03T22:42:32.909677+00:00", "meta": {"OBJECT_NAME": "FENGYUN 1C DEB", "OBJECT_ID": "1999-025TF", "EPOCH": "2025-12-03T08:45:28.585152", "MEAN_MOTION": 13.86576478, "ECCENTRICITY": 0.0146718, "INCLINATION": 98.9941, "RA_OF_ASC_NODE": 113.7139, "ARG_OF_PERICENTER": 1.6059, "MEAN_ANOMALY": 52.4916, "EPHEMERIS_TYPE": 0, "CLASSIFICATION_TYPE": "U", "NORAD_CAT_ID": 30150, "ELEMENT_SET_NO": 999, "REV_AT_EPOCH": 95328, "BSTAR": 0.00063508, "MEAN_MOTION_DOT": 7.61e-06, "MEAN_MOTION_DDOT": 0}, "tle": {"line1": "1 30150U 99025TF  25337.36491418  .00000761  00000+0  63508-3 0  9998", "line2": "2 30150  98.9941 113.7139 0146718   1.6059  52.4916 13.86576478953283"}}, "geometry": {"type": "Point", "coordinates": [82.57145093948238, 73.22784760865424]}}, {"type": "Feature", "properties": {"norad_id": 30151, "name": "FENGYUN 1C DEB", "group": "fengyun-1c-debris", "lat": -55.69722194005919, "lon": -0.2446847780441477, "alt_km": 835.5056589707156, "timestamp": "2025-12-03T22:42:32.909686+00:00", "meta": {"OBJECT_NAME": "FENGYUN 1C DEB", "OBJECT_ID": "1999-025TG", "EPOCH": "2025-12-03T00:43:17.165856", "MEAN_MOTION": 13.84448896, "ECCENTRICITY": 0.0163271, "INCLINATION": 99.0635, "RA_OF_ASC_NODE": 345.34, "ARG_OF_PERICENTER": 304.9779, "MEAN_ANOMALY": 114.6215, "EPHEMERIS_TYPE": 0, "CLASSIFICATION_TYPE": "U", "NORAD_CAT_ID": 30151, "ELEMENT_SET_NO": 999, "REV_AT_EPOCH": 95111, "BSTAR": 0.00089012415, "MEAN_MOTION_DOT": 1.062e-05, "MEAN_MOTION_DDOT": 0}, "tle": {"line1": "1 30151U 99025TG  25337.03005979  .00001062  00000+0  89012-3 0  9999", "line2": "2 30151  99.0635 345.3400 0163271 304.9779 114.6215 13.84448896951114"}}, "geometry": {"type": "Point", "coordinates": [-0.2446847780441477, -55.69722194005919]}}, {"type": "Feature", "properties": {"norad_id": 30152, "name": "FENGYUN 1C DEB", "group": "fengyun-1c-debris", "lat": 38.323167197632124, "lon": -171.45672387346914, "alt_km": 862.164626866469, "timestamp": "2025-12-03T22:42:32.909695+00:00", "meta": {"OBJECT_NAME": "FENGYUN 1C DEB", "OBJECT_ID": "1999-025TH", "EPOCH": "2025-12-03T03:36:35.722080", "MEAN_MOTION": 13.96585453, "ECCENTRICITY": 0.01609806, "INCLINATION": 99.0808, "RA_OF_ASC_NODE": 195.0199, "ARG_OF_PERICENTER": 111.8172, "MEAN_ANOMALY": 250.0202, "EPHEMERIS_TYPE": 0, "CLASSIFICATION_TYPE": "U", "NORAD_CAT_ID": 30152, "ELEMENT_SET_NO": 999, "REV_AT_EPOCH": 95244, "BSTAR": 0.0028149658, "MEAN_MOTION_DOT": 4.306e-05, "MEAN_MOTION_DDOT": 0}, "tle": {"line1": "1 30152U 99025TH  25337.15041345  .00004306  00000+0  28150-2 0  9999", "line2": "2 30152  99.0808 195.0199 0160980 111.8172 250.0202 13.96585453952440"}}, "geometry": {"type": "Point", "coordinates": [-171.45672387346914, 38.323167197632124]}}, {"type": "Feature", "properties": {"norad_id": 30153, "name": "FENGYUN 1C DEB", "group": "fengyun-1c-debris", "lat": -58.29490846722918, "lon": 130.01161135693587, "alt_km": 1099.7757310497236, "timestamp": "2025-12-03T22:42:32.909704+00:00", "meta": {"OBJECT_NAME": "FENGYUN 1C DEB", "OBJECT_ID": "1999-025TJ", "EPOCH": "2025-12-02T21:27:27.266976", "MEAN_MOTION": 13.78725881, "ECCENTRICITY": 0.02008571, "INCLINATION": 100.466, "RA_OF_ASC_NODE": 326.2619, "ARG_OF_PERICENTER": 30.5571, "MEAN_ANOMALY": 30.934, "EPHEMERIS_TYPE": 0, "CLASSIFICATION_TYPE": "U", "NORAD_CAT_ID": 30153, "ELEMENT_SET_NO": 999, "REV_AT_EPOCH": 94639, "BSTAR": 0.0012982003, "MEAN_MOTION_DOT": 1.481e-05, "MEAN_MOTION_DDOT": 0}, "tle": {"line1": "1 30153U 99025TJ  25336.89406559  .00001481  00000+0  12982-2 0  9999", "line2": "2 30153 100.4660 326.2619 0200857  30.5571  30.9340 13.78725881946393"}}, "geometry": {"type": "Point", "coordinates": [130.01161135693587, -58.29490846722918]}}, {"type": "Feature", "properties": {"norad_id": 30154, "name": "FENGYUN 1C DEB", "group": "fengyun-1c-debris", "lat": -80.48560518349032, "lon": 138.0862580905116, "alt_km": 851.3221448236318, "timestamp": "2025-12-03T22:42:32.909713+00:00", "meta": {"OBJECT_NAME": "FENGYUN 1C DEB", "OBJECT_ID": "1999-025TK", "EPOCH": "2025-12-02T02:15:41.257728", "MEAN_MOTION": 13.85922523, "ECCENTRICITY": 0.01824653, "INCLINATION": 98.4506, "RA_OF_ASC_NODE": 18.9121, "ARG_OF_PERICENTER": 227.7645, "MEAN_ANOMALY": 161.336, "EPHEMERIS_TYPE": 0, "CLASSIFICATION_TYPE": "U", "NORAD_CAT_ID": 30154, "ELEMENT_SET_NO": 999, "REV_AT_EPOCH": 94837, "BSTAR": 0.0017171262, "MEAN_MOTION_DOT": 2.209e-05, "MEAN_MOTION_DDOT": 0}, "tle": {"line1": "1 30154U 99025TK  25336.09422752  .00002209  00000+0  17171-2 0  9999", "line2": "2 30154  98.4506  18.9121 0182465 227.7645 161.3360 13.85922523948379"}}, "geometry": {"type": "Point", "coordinates": [138.0862580905116, -80.48560518349032]}}, {"type": "Feature", "properties": {"norad_id": 30155, "name": "FENGYUN 1C DEB", "group": "fengyun-1c-debris", "lat": 30.293722111699225, "lon": -122.94177512658972, "alt_km": 1124.0082539248715, "timestamp": "2025-12-03T22:42:32.909722+00:00", "meta": {"OBJECT_NAME": "FENGYUN 1C DEB", "OBJECT_ID": "1999-025TL", "EPOCH": "2025-12-03T04:30:58.879872", "MEAN_MOTION": 13.73744951, "ECCENTRICITY": 0.02419342, "INCLINATION": 99.7525, "RA_OF_ASC_NODE": 50.5185, "ARG_OF_PERICENTER": 8.6603, "MEAN_ANOMALY": 351.8608, "EPHEMERIS_TYPE": 0, "CLASSIFICATION_TYPE": "U", "NORAD_CAT_ID": 30155, "ELEMENT_SET_NO": 999, "REV_AT_EPOCH": 93733, "BSTAR": 0.0022484842, "MEAN_MOTION_DOT": 2.55e-05, "MEAN_MOTION_DDOT": 0}, "tle": {"line1": "1 30155U 99025TL  25337.18818148  .00002550  00000+0  22485-2 0  9992", "line2": "2 30155  99.7525  50.5185 0241934   8.6603 351.8608 13.73744951937333"}}, "geometry": {"type": "Point", "coordinates": [-122.94177512658972, 30.293722111699225]}}, {"type": "Feature", "properties": {"norad_id": 30156, "name": "FENGYUN 1C DEB", "group": "fengyun-1c-debris", "lat": 1.9123147505291482, "lon": 125.73121894871926, "alt_km": 1007.9949711474137, "timestamp": "2025-12-03T22:42:32.909731+00:00", "meta": {"OBJECT_NAME": "FENGYUN 1C DEB", "OBJECT_ID": "1999-025TM", "EPOCH": "2025-12-03T08:41:31.729056", "MEAN_MOTION": 13.80756146, "ECCENTRICITY": 0.020016, "INCLINATION": 98.9176, "RA_OF_ASC_NODE": 304.8793, "ARG_OF_PERICENTER": 288.1138, "MEAN_ANOMALY": 230.476, "EPHEMERIS_TYPE": 0, "CLASSIFICATION_TYPE": "U", "NORAD_CAT_ID": 30156, "ELEMENT_SET_NO": 999, "REV_AT_EPOCH": 94561, "BSTAR": 0.0024003, "MEAN_MOTION_DOT": 2.895e-05, "MEAN_MOTION_DDOT": 0}, "tle": {"line1": "1 30156U 99025TM  25337.36217279  .00002895  00000+0  24003-2 0  9991", "line2": "2 30156  98.9176 304.8793 0200160 288.1138 230.4760 13.80756146945619"}}, "geometry": {"type": "Point", "coordinates": [125.73121894871926, 1.9123147505291482]}}, {"type": "Feature", "properties": {"norad_id": 30157, "name": "FENGYUN 1C DEB", "group": "fengyun-1c-debris", "lat": -47.06816718433623, "lon": -114.73948179897016, "alt_km": 723.2931057788128, "timestamp": "2025-12-03T22:42:32.909740+00:00", "meta": {"OBJECT_NAME": "FENGYUN 1C DEB", "OBJECT_ID": "1999-025TN", "EPOCH": "2025-12-02T06:01:25.021920", "MEAN_MOTION": 14.44832563, "ECCENTRICITY": 0.0036914, "INCLINATION": 98.7167, "RA_OF_ASC_NODE": 73.0144, "ARG_OF_PERICENTER": 223.5946, "MEAN_ANOMALY": 191.4647, "EPHEMERIS_TYPE": 0, "CLASSIFICATION_TYPE": "U", "NORAD_CAT_ID": 30157, "ELEMENT_SET_NO": 999, "REV_AT_EPOCH": 97921, "BSTAR": 0.0027288, "MEAN_MOTION_DOT": 9.533e-05, "MEAN_MOTION_DDOT": 0}, "tle": {"line1": "1 30157U 99025TN  25336.25098405  .00009533  00000+0  27288-2 0  9991", "line2": "2 30157  98.7167  73.0144 0036914 223.5946 191.4647 14.44832563979219"}}, "geometry": {"type": "Point", "coordinates": [-114.73948179897016, -47.06816718433623]}}]}